{
  "type": "FeatureCollection",
  "features": [
    {
      "type": "Feature",
      "properties": {
        "norad_id": 44333,
        "name": "AT&T T-16",
        "group": "intelsat",
        "lat": 0.007524164670032309,
        "lon": 42.53375902596554,
        "alt_km": 35787.699519584945,
        "timestamp": "2025-12-16T03:53:26.726844+00:00",
        "meta_object_name": "AT&T T-16",
        "meta_object_id": "2019-034A",
        "meta_epoch": "2025-12-14T21:29:59.762112",
        "meta_mean_motion": 1.00270833,
        "meta_eccentricity": 9.964e-05,
        "meta_inclination": 0.0252,
        "meta_ra_of_asc_node": 69.3394,
        "meta_arg_of_pericenter": 81.8643,
        "meta_mean_anomaly": 154.2461,
        "meta_ephemeris_type": 0,
        "meta_classification_type": "U",
        "meta_norad_cat_id": 44333,
        "meta_element_set_no": 999,
        "meta_rev_at_epoch": 2378,
        "meta_bstar": 0,
        "meta_mean_motion_dot": -9.5e-07,
        "meta_mean_motion_ddot": 0,
        "tle_line1": "1 44333U 19034A   25348.89583058 -.00000095  00000+0  00000+0 0  9995",
        "tle_line2": "2 44333   0.0252  69.3394 0000996  81.8643 154.2461  1.00270833 23783"
      },
      "geometry": {
        "type": "Point",
        "coordinates": [
          42.53375902596554,
          0.007524164670032309
        ]
      }
    },
    {
      "type": "Feature",
      "properties": {
        "norad_id": 44476,
        "name": "INTELSAT 39 (IS-39)",
        "group": "intelsat",
        "lat": -0.03403538968312186,
        "lon": -154.6404423517962,
        "alt_km": 35784.20687515106,
        "timestamp": "2025-12-16T03:53:26.726856+00:00",
        "meta_object_name": "INTELSAT 39 (IS-39)",
        "meta_object_id": "2019-049B",
        "meta_epoch": "2025-12-15T05:07:18.216192",
        "meta_mean_motion": 1.0027092,
        "meta_eccentricity": 0.00012261,
        "meta_inclination": 0.02,
        "meta_ra_of_asc_node": 330.9109,
        "meta_arg_of_pericenter": 168.1982,
        "meta_mean_anomaly": 83.7811,
        "meta_ephemeris_type": 0,
        "meta_classification_type": "U",
        "meta_norad_cat_id": 44476,
        "meta_element_set_no": 999,
        "meta_rev_at_epoch": 2328,
        "meta_bstar": 0,
        "meta_mean_motion_dot": 5.4e-07,
        "meta_mean_motion_ddot": 0,
        "tle_line1": "1 44476U 19049B   25349.21340528  .00000054  00000+0  00000+0 0  9993",
        "tle_line2": "2 44476   0.0200 330.9109 0001226 168.1982  83.7811  1.00270920 23284"
      },
      "geometry": {
        "type": "Point",
        "coordinates": [
          -154.6404423517962,
          -0.03403538968312186
        ]
      }
    },
    {
      "type": "Feature",
      "properties": {
        "norad_id": 46114,
        "name": "GALAXY 30 (G-30)",
        "group": "intelsat",
        "lat": 0.018934289064705956,
        "lon": 18.43072360865043,
        "alt_km": 35789.948918129456,
        "timestamp": "2025-12-16T03:53:26.726867+00:00",
        "meta_object_name": "GALAXY 30 (G-30)",
        "meta_object_id": "2020-056C",
        "meta_epoch": "2025-12-15T07:35:02.904576",
        "meta_mean_motion": 1.00271437,
        "meta_eccentricity": 0.00020876,
        "meta_inclination": 0.0188,
        "meta_ra_of_asc_node": 359.4433,
        "meta_arg_of_pericenter": 263.343,
        "meta_mean_anomaly": 170.2018,
        "meta_ephemeris_type": 0,
        "meta_classification_type": "U",
        "meta_norad_cat_id": 46114,
        "meta_element_set_no": 999,
        "meta_rev_at_epoch": 1944,
        "meta_bstar": 0,
        "meta_mean_motion_dot": 5.8e-07,
        "meta_mean_motion_ddot": 0,
        "tle_line1": "1 46114U 20056C   25349.31600584  .00000058  00000+0  00000+0 0  9990",
        "tle_line2": "2 46114   0.0188 359.4433 0002087 263.3430 170.2018  1.00271437 19446"
      },
      "geometry": {
        "type": "Point",
        "coordinates": [
          18.43072360865043,
          0.018934289064705956
        ]
      }
    },
    {
      "type": "Feature",
      "properties": {
        "norad_id": 54026,
        "name": "GALAXY 33 (G-33)",
        "group": "intelsat",
        "lat": 0.018151090034092696,
        "lon": 10.432913227990294,
        "alt_km": 35788.56498342884,
        "timestamp": "2025-12-16T03:53:26.726879+00:00",
        "meta_object_name": "GALAXY 33 (G-33)",
        "meta_object_id": "2022-128A",
        "meta_epoch": "2025-12-15T08:39:38.537280",
        "meta_mean_motion": 1.00272814,
        "meta_eccentricity": 0.00018189,
        "meta_inclination": 0.0133,
        "meta_ra_of_asc_node": 343.6881,
        "meta_arg_of_pericenter": 275.0351,
        "meta_mean_anomaly": 182.4579,
        "meta_ephemeris_type": 0,
        "meta_classification_type": "U",
        "meta_norad_cat_id": 54026,
        "meta_element_set_no": 999,
        "meta_rev_at_epoch": 1190,
        "meta_bstar": 0,
        "meta_mean_motion_dot": 1e-06,
        "meta_mean_motion_ddot": 0,
        "tle_line1": "1 54026U 22128A   25349.36086270  .00000100  00000+0  00000+0 0  9996",
        "tle_line2": "2 54026   0.0133 343.6881 0001818 275.0351 182.4579  1.00272814 11902"
      },
      "geometry": {
        "type": "Point",
        "coordinates": [
          10.432913227990294,
          0.018151090034092696
        ]
      }
    },
    {
      "type": "Feature",
      "properties": {
        "norad_id": 54027,
        "name": "GALAXY 34 (G-34)",
        "group": "intelsat",
        "lat": 0.03309342750585474,
        "lon": 14.491694578930074,
        "alt_km": 35788.83980839183,
        "timestamp": "2025-12-16T03:53:26.726890+00:00",
        "meta_object_name": "GALAXY 34 (G-34)",
        "meta_object_id": "2022-128B",
        "meta_epoch": "2025-12-15T07:35:38.904000",
        "meta_mean_motion": 1.0027101,
        "meta_eccentricity": 0.00014748,
        "meta_inclination": 0.0252,
        "meta_ra_of_asc_node": 328.1325,
        "meta_arg_of_pericenter": 291.6247,
        "meta_mean_anomaly": 169.4498,
        "meta_ephemeris_type": 0,
        "meta_classification_type": "U",
        "meta_norad_cat_id": 54027,
        "meta_element_set_no": 999,
        "meta_rev_at_epoch": 1206,
        "meta_bstar": 0,
        "meta_mean_motion_dot": 0,
        "meta_mean_motion_ddot": 0,
        "tle_line1": "1 54027U 22128B   25349.31642250  .00000000  00000+0  00000+0 0  9997",
        "tle_line2": "2 54027   0.0252 328.1325 0001474 291.6247 169.4498  1.00271010 12062"
      },
      "geometry": {
        "type": "Point",
        "coordinates": [
          14.491694578930074,
          0.03309342750585474
        ]
      }
    },
    {
      "type": "Feature",
      "properties": {
        "norad_id": 54243,
        "name": "GALAXY 31 (G-31)",
        "group": "intelsat",
        "lat": 0.018525936051920194,
        "lon": 22.413144247634825,
        "alt_km": 35787.64678982525,
        "timestamp": "2025-12-16T03:53:26.726902+00:00",
        "meta_object_name": "GALAXY 31 (G-31)",
        "meta_object_id": "2022-153A",
        "meta_epoch": "2025-12-15T05:57:50.874336",
        "meta_mean_motion": 1.00271245,
        "meta_eccentricity": 0.00014871,
        "meta_inclination": 0.0132,
        "meta_ra_of_asc_node": 0.5369,
        "meta_arg_of_pericenter": 278.5657,
        "meta_mean_anomaly": 133.5069,
        "meta_ephemeris_type": 0,
        "meta_classification_type": "U",
        "meta_norad_cat_id": 54243,
        "meta_element_set_no": 999,
        "meta_rev_at_epoch": 528,
        "meta_bstar": 0,
        "meta_mean_motion_dot": 0,
        "meta_mean_motion_ddot": 0,
        "tle_line1": "1 54243U 22153A   25349.24850549  .00000000  00000+0  00000+0 0  9999",
        "tle_line2": "2 54243   0.0132   0.5369 0001487 278.5657 133.5069  1.00271245  5283"
      },
      "geometry": {
        "type": "Point",
        "coordinates": [
          22.413144247634825,
          0.018525936051920194
        ]
      }
    },
    {
      "type": "Feature",
      "properties": {
        "norad_id": 54244,
        "name": "GALAXY 32 (G-32)",
        "group": "intelsat",
        "lat": 0.03116466560295183,
        "lon": 52.43674064025193,
        "alt_km": 35787.30152563125,
        "timestamp": "2025-12-16T03:53:26.726914+00:00",
        "meta_object_name": "GALAXY 32 (G-32)",
        "meta_object_id": "2022-153B",
        "meta_epoch": "2025-12-15T06:06:27.548928",
        "meta_mean_motion": 1.00271821,
        "meta_eccentricity": 0.00025766,
        "meta_inclination": 0.0088,
        "meta_ra_of_asc_node": 336.098,
        "meta_arg_of_pericenter": 340.2571,
        "meta_mean_anomaly": 128.4228,
        "meta_ephemeris_type": 0,
        "meta_classification_type": "U",
        "meta_norad_cat_id": 54244,
        "meta_element_set_no": 999,
        "meta_rev_at_epoch": 1130,
        "meta_bstar": 0,
        "meta_mean_motion_dot": -1.53e-06,
        "meta_mean_motion_ddot": 0,
        "tle_line1": "1 54244U 22153B   25349.25448552 -.00000153  00000+0  00000+0 0  9998",
        "tle_line2": "2 54244   0.0088 336.0980 0002576 340.2571 128.4228  1.00271821 11302"
      },
      "geometry": {
        "type": "Point",
        "coordinates": [
          52.43674064025193,
          0.03116466560295183
        ]
      }
    }
  ]
}